OBJECT_NAME,OBJECT_ID,EPOCH,MEAN_MOTION,ECCENTRICITY,INCLINATION,RA_OF_ASC_NODE,ARG_OF_PERICENTER,MEAN_ANOMALY,EPHEMERIS_TYPE,CLASSIFICATION_TYPE,NORAD_CAT_ID,ELEMENT_SET_NO,REV_AT_EPOCH,BSTAR,MEAN_MOTION_DOT,MEAN_MOTION_DDOT
IONOSFERA-M 2,2024-199B,2026-06-05T06:32:41.203968,14.22755288,.00014977,98.7185,29.4806,49.2978,310.8330,0,U,61736,999,12913,.51102765E-4,.71E-6,0
PRSC-EO1,2025-012A,2026-06-05T09:21:15.687360,15.17612440,.0004356,97.4223,229.0797,307.9057,52.1783,0,U,62725,999,7640,.21314E-3,.422E-4,0
BIOMASS,2025-090A,2026-06-05T05:42:38.824704,14.67539211,.00012716,98.0749,343.7281,88.7486,271.3864,0,U,63772,999,5893,.1541105E-3,.826E-5,0
GOSAT-GW (IBUKI GW),2025-141A,2026-06-05T06:12:04.578912,14.67549909,.00014162,98.0570,93.7696,82.7399,277.3966,0,U,64694,999,5009,.14559238E-3,.778E-5,0
IONOSFERA-M 3,2025-155A,2026-06-05T06:42:48.373056,14.21484317,.00002683,98.6020,118.4850,190.0372,170.0801,0,U,64876,999,4471,.47217572E-4,.6E-6,0
IONOSFERA-M 4,2025-155B,2026-06-05T05:51:38.715840,14.21486458,.00006352,98.6025,118.3679,110.5898,249.5348,0,U,64877,999,4470,.45940618E-4,.58E-6,0
MICROCARB,2025-156A,2026-06-04T17:06:33.121440,14.72312642,.00152893,97.9831,233.0726,315.5764,44.4217,0,U,64899,999,4613,.11034535E-3,.649E-5,0
CO3D 3,2025-156B,2026-06-05T03:24:33.983136,15.20207550,.00009975,97.4324,235.0083,142.1716,217.9589,0,U,64900,999,4770,.21041587E-3,.4491E-4,0
CO3D 4,2025-156C,2026-06-05T03:24:48.449952,15.20207625,.00009691,97.4326,235.0083,36.4734,323.6567,0,U,64901,999,4770,.2129353E-3,.4545E-4,0
CO3D 2,2025-156D,2026-06-05T04:11:33.095040,15.20213074,.00013564,97.4325,234.9395,119.9583,240.1787,0,U,64902,999,4770,.22311846E-3,.4767E-4,0
CO3D 1,2025-156E,2026-06-05T04:11:46.560480,15.20204547,.00011327,97.4325,234.9398,119.8817,240.2531,0,U,64903,999,4770,.22185286E-3,.4738E-4,0
PRSC-S1,2025-164A,2026-06-05T06:19:48.007776,15.06342206,.00076478,41.1316,354.9591,274.2706,85.7234,0,U,65055,999,4663,.33413347E-3,.483E-4,0
SENTINEL-6B,2025-264A,2026-06-04T04:52:45.263424,12.80929598,.000806,66.0384,162.1463,269.2892,90.7199,0,U,66514,999,2550,.18263494E-4,-.57E-6,0
CAS500-3,2025-274F,2026-06-05T01:06:37.740096,14.88291433,.00060312,97.7446,84.3737,142.7649,217.3987,0,U,66655,999,2834,.16896E-3,.1508E-4,0
CSG-3,2026-001A,2026-06-05T01:07:51.454848,14.82160489,.00013142,97.8886,339.8250,93.6956,266.4408,0,U,67304,999,2266,.54351501E-4,.381E-5,0
PRSC-E03,2026-092A,2026-06-05T07:47:34.550016,15.06611056,.00053196,37.9994,159.6289,284.5958,75.4214,0,U,68835,999,616,.15115281E-3,.2174E-4,0
CAS500-2,2026-100AK,2026-06-04T15:33:45.491616,15.20434131,.00115729,97.4084,53.7208,74.0899,286.1611,0,U,69013,999,490,.35747976E-3,.7744E-4,0
