IONOSFERA-M 2           
1 61736U 24199B   26156.27269912  .00000071  00000+0  51103-4 0  9997
2 61736  98.7185  29.4806 0001497  49.2978 310.8330 14.22755288129130
PRSC-EO1                
1 62725U 25012A   26156.38976490  .00004220  00000+0  21314-3 0  9999
2 62725  97.4223 229.0797 0004356 307.9057  52.1783 15.17612440 76400
BIOMASS                 
1 63772U 25090A   26156.23794936  .00000826  00000+0  15411-3 0  9994
2 63772  98.0749 343.7281 0001271  88.7486 271.3864 14.67539211 58939
GOSAT-GW (IBUKI GW)     
1 64694U 25141A   26156.25838633  .00000778  00000+0  14559-3 0  9998
2 64694  98.0570  93.7696 0001416  82.7399 277.3966 14.67549909 50098
IONOSFERA-M 3           
1 64876U 25155A   26156.27972654  .00000060  00000+0  47218-4 0  9992
2 64876  98.6020 118.4850 0000268 190.0372 170.0801 14.21484317 44711
IONOSFERA-M 4           
1 64877U 25155B   26156.24419810  .00000058  00000+0  45941-4 0  9998
2 64877  98.6025 118.3679 0000635 110.5898 249.5348 14.21486458 44708
MICROCARB               
1 64899U 25156A   26155.71288335  .00000649  00000+0  11035-3 0  9992
2 64899  97.9831 233.0726 0015289 315.5764  44.4217 14.72312642 46132
CO3D 3                  
1 64900U 25156B   26156.14205999  .00004491  00000+0  21042-3 0  9996
2 64900  97.4324 235.0083 0000997 142.1716 217.9589 15.20207550 47704
CO3D 4                  
1 64901U 25156C   26156.14222743  .00004545  00000+0  21294-3 0  9992
2 64901  97.4326 235.0083 0000969  36.4734 323.6567 15.20207625 47705
CO3D 2                  
1 64902U 25156D   26156.17468860  .00004767  00000+0  22312-3 0  9996
2 64902  97.4325 234.9395 0001356 119.9583 240.1787 15.20213074 47701
CO3D 1                  
1 64903U 25156E   26156.17484445  .00004738  00000+0  22185-3 0  9990
2 64903  97.4325 234.9398 0001132 119.8817 240.2531 15.20204547 47709
PRSC-S1                 
1 65055U 25164A   26156.26375009  .00004830  00000+0  33413-3 0  9992
2 65055  41.1316 354.9591 0007647 274.2706  85.7234 15.06342206 46634
SENTINEL-6B             
1 66514U 25264A   26155.20330166 -.00000057  00000+0  18263-4 0  9997
2 66514  66.0384 162.1463 0008060 269.2892  90.7199 12.80929598 25506
CAS500-3                
1 66655U 25274F   26156.04627014  .00001508  00000+0  16896-3 0  9998
2 66655  97.7446  84.3737 0006031 142.7649 217.3987 14.88291433 28349
CSG-3                   
1 67304U 26001A   26156.04712332  .00000381  00000+0  54352-4 0  9995
2 67304  97.8886 339.8250 0001314  93.6956 266.4408 14.82160489 22664
PRSC-E03                
1 68835U 26092A   26156.32470544  .00002174  00000+0  15115-3 0  9997
2 68835  37.9994 159.6289 0005319 284.5958  75.4214 15.06611056  6169
CAS500-2                
1 69013U 26100AK  26155.64844319  .00007744  00000+0  35748-3 0  9997
2 69013  97.4084  53.7208 0011572  74.0899 286.1611 15.20434131  4903
